{
"type": "FeatureCollection",
"name": "Bsn_SolicitudVivienda",
"crs": { "type": "name", "properties": { "name": "urn:ogc:def:crs:OGC:1.3:CRS84" } },
"features": [
{ "type": "Feature", "properties": { "CODIGO BSN": "1209", "PROVINCIA": "MANABI", "CANTON": "FLAVIO ALFARO", "AREA": "10", "VIS UNIFAM": 120, "VIS MULTIF": 240, "PRSUP UNIF": 3986811.2, "PRSUP MULT": 8266971 }, "geometry": { "type": "MultiPolygon", "coordinates": [ [ [ [ -79.894847, -0.413031, 0.0 ], [ -79.89517, -0.414159, 0.0 ], [ -79.895563, -0.414205, 0.0 ], [ -79.895791, -0.413767, 0.0 ], [ -79.896489, -0.413698, 0.0 ], [ -79.897082, -0.413741, 0.0 ], [ -79.897508, -0.413926, 0.0 ], [ -79.897907, -0.413841, 0.0 ], [ -79.897994, -0.413564, 0.0 ], [ -79.898424, -0.413244, 0.0 ], [ -79.897804, -0.410978, 0.0 ], [ -79.89567, -0.411224, 0.0 ], [ -79.895591, -0.411349, 0.0 ], [ -79.895318, -0.411902, 0.0 ], [ -79.894847, -0.413031, 0.0 ] ] ] ] } },
{ "type": "Feature", "properties": { "CODIGO BSN": "1491", "PROVINCIA": "LOJA", "CANTON": "PUYANGO", "AREA": "0.81", "VIS UNIFAM": 0, "VIS MULTIF": 60, "PRSUP UNIF": 0.0, "PRSUP MULT": 1738113 }, "geometry": { "type": "MultiPolygon", "coordinates": [ [ [ [ -80.023596, -4.018961, 0.0 ], [ -80.023633, -4.019046, 0.0 ], [ -80.023654, -4.018987, 0.0 ], [ -80.023719, -4.01883, 0.0 ], [ -80.023765, -4.01873, 0.0 ], [ -80.023811, -4.018618, 0.0 ], [ -80.023848, -4.018522, 0.0 ], [ -80.023849, -4.018475, 0.0 ], [ -80.023829, -4.018367, 0.0 ], [ -80.023822, -4.018342, 0.0 ], [ -80.023799, -4.018229, 0.0 ], [ -80.023781, -4.018148, 0.0 ], [ -80.023765, -4.018056, 0.0 ], [ -80.023763, -4.018008, 0.0 ], [ -80.023754, -4.017973, 0.0 ], [ -80.023737, -4.017936, 0.0 ], [ -80.023725, -4.017888, 0.0 ], [ -80.023704, -4.017834, 0.0 ], [ -80.023684, -4.01781, 0.0 ], [ -80.023649, -4.017794, 0.0 ], [ -80.023619, -4.017783, 0.0 ], [ -80.023591, -4.01778, 0.0 ], [ -80.023555, -4.017784, 0.0 ], [ -80.023474, -4.017811, 0.0 ], [ -80.023394, -4.017849, 0.0 ], [ -80.023341, -4.017874, 0.0 ], [ -80.023274, -4.017905, 0.0 ], [ -80.023212, -4.017935, 0.0 ], [ -80.023012, -4.01803, 0.0 ], [ -80.022789, -4.01814, 0.0 ], [ -80.022908, -4.018242, 0.0 ], [ -80.023014, -4.01833, 0.0 ], [ -80.023043, -4.018354, 0.0 ], [ -80.023067, -4.018374, 0.0 ], [ -80.023232, -4.018512, 0.0 ], [ -80.023407, -4.018657, 0.0 ], [ -80.023491, -4.018727, 0.0 ], [ -80.023549, -4.018852, 0.0 ], [ -80.023573, -4.018908, 0.0 ], [ -80.02359, -4.018946, 0.0 ], [ -80.023596, -4.018961, 0.0 ] ] ] ] } },
{ "type": "Feature", "properties": { "CODIGO BSN": "1917", "PROVINCIA": "LOS RIOS", "CANTON": "BUENA FE", "AREA": "2.93", "VIS UNIFAM": 50, "VIS MULTIF": 100, "PRSUP UNIF": 1661171.333, "PRSUP MULT": 3444571 }, "geometry": { "type": "MultiPolygon", "coordinates": [ [ [ [ -79.490929, -0.870959, 0.0 ], [ -79.490743, -0.870949, 0.0 ], [ -79.490597, -0.870941, 0.0 ], [ -79.490474, -0.870936, 0.0 ], [ -79.490381, -0.870933, 0.0 ], [ -79.490352, -0.87093, 0.0 ], [ -79.490334, -0.870991, 0.0 ], [ -79.490292, -0.87113, 0.0 ], [ -79.490384, -0.871225, 0.0 ], [ -79.490468, -0.871287, 0.0 ], [ -79.490668, -0.871428, 0.0 ], [ -79.491294, -0.87175, 0.0 ], [ -79.491716, -0.871942, 0.0 ], [ -79.492268, -0.871601, 0.0 ], [ -79.493051, -0.871351, 0.0 ], [ -79.493178, -0.871273, 0.0 ], [ -79.493079, -0.871198, 0.0 ], [ -79.492956, -0.871089, 0.0 ], [ -79.492778, -0.87098, 0.0 ], [ -79.492478, -0.870781, 0.0 ], [ -79.492178, -0.870601, 0.0 ], [ -79.491671, -0.870297, 0.0 ], [ -79.491438, -0.870149, 0.0 ], [ -79.49129, -0.870394, 0.0 ], [ -79.491249, -0.870972, 0.0 ], [ -79.490929, -0.870959, 0.0 ] ] ] ] } },
{ "type": "Feature", "properties": { "CODIGO BSN": "1959", "PROVINCIA": "GUAYAS", "CANTON": "EL EMPALME", "AREA": "3.2", "VIS UNIFAM": 54, "VIS MULTIF": 108, "PRSUP UNIF": 1554159.6, "PRSUP MULT": 3405849 }, "geometry": { "type": "MultiPolygon", "coordinates": [ [ [ [ -79.651492, -1.048513, 0.0 ], [ -79.650721, -1.048635, 0.0 ], [ -79.651008, -1.049748, 0.0 ], [ -79.650888, -1.050404, 0.0 ], [ -79.652596, -1.050762, 0.0 ], [ -79.652554, -1.050481, 0.0 ], [ -79.652275, -1.049622, 0.0 ], [ -79.651867, -1.048874, 0.0 ], [ -79.651692, -1.04878, 0.0 ], [ -79.651492, -1.048513, 0.0 ] ] ] ] } },
{ "type": "Feature", "properties": { "CODIGO BSN": "1961", "PROVINCIA": "LOS RIOS", "CANTON": "VINCES", "AREA": "1.18", "VIS UNIFAM": 30, "VIS MULTIF": 50, "PRSUP UNIF": 1070040.0, "PRSUP MULT": 1783400 }, "geometry": { "type": "MultiPolygon", "coordinates": [ [ [ [ -79.745088, -1.544829, 0.0 ], [ -79.745561, -1.545304, 0.0 ], [ -79.745711, -1.545323, 0.0 ], [ -79.745736, -1.545378, 0.0 ], [ -79.746156, -1.545219, 0.0 ], [ -79.746176, -1.545262, 0.0 ], [ -79.74629, -1.545203, 0.0 ], [ -79.746212, -1.545042, 0.0 ], [ -79.745696, -1.543977, 0.0 ], [ -79.745046, -1.544294, 0.0 ], [ -79.745334, -1.544719, 0.0 ], [ -79.745088, -1.544829, 0.0 ] ] ] ] } },
{ "type": "Feature", "properties": { "CODIGO BSN": "1962", "PROVINCIA": "LOJA", "CANTON": "LOJA", "AREA": "2.13", "VIS UNIFAM": 45, "VIS MULTIF": 90, "PRSUP UNIF": 1605060.0, "PRSUP MULT": 3210120 }, "geometry": { "type": "MultiPolygon", "coordinates": [ [ [ [ -79.257298, -3.959636, 0.0 ], [ -79.25746, -3.95998, 0.0 ], [ -79.257982, -3.959918, 0.0 ], [ -79.258947, -3.959332, 0.0 ], [ -79.259371, -3.959035, 0.0 ], [ -79.259722, -3.958791, 0.0 ], [ -79.260101, -3.958584, 0.0 ], [ -79.259939, -3.958493, 0.0 ], [ -79.259804, -3.958421, 0.0 ], [ -79.259624, -3.958366, 0.0 ], [ -79.259615, -3.958366, 0.0 ], [ -79.259246, -3.958555, 0.0 ], [ -79.258939, -3.958717, 0.0 ], [ -79.258515, -3.958942, 0.0 ], [ -79.258092, -3.959086, 0.0 ], [ -79.257669, -3.959158, 0.0 ], [ -79.257137, -3.959283, 0.0 ], [ -79.257298, -3.959636, 0.0 ] ] ] ] } },
{ "type": "Feature", "properties": { "CODIGO BSN": "2227", "PROVINCIA": "AZUAY", "CANTON": "NABON", "AREA": "1.9", "VIS UNIFAM": 30, "VIS MULTIF": 0, "PRSUP UNIF": 863422.0, "PRSUP MULT": 0 }, "geometry": { "type": "MultiPolygon", "coordinates": [ [ [ [ -79.076746, -3.342401, 0.0 ], [ -79.075771, -3.342756, 0.0 ], [ -79.075701, -3.342949, 0.0 ], [ -79.075558, -3.343378, 0.0 ], [ -79.075542, -3.343387, 0.0 ], [ -79.075379, -3.343481, 0.0 ], [ -79.07553, -3.343924, 0.0 ], [ -79.075725, -3.343846, 0.0 ], [ -79.075741, -3.343839, 0.0 ], [ -79.077425, -3.343159, 0.0 ], [ -79.076917, -3.342567, 0.0 ], [ -79.076746, -3.342401, 0.0 ] ] ] ] } }
]
}
